*******************************************************************************
JPL/HORIZONS              125 Liberatrix (A872 RA)         2023-Sep-04 11:04:31
Rec #:     125 (+COV) Soln.date: 2023-Aug-21_19:42:12   # obs: 5660 (1872-2023)
 
IAU76/J2000 helio. ecliptic osc. elements (au, days, deg., period=Julian yrs):
 
  EPOCH=  2456929.5 ! 2014-Sep-29.00 (TDB)         Residual RMS= .3037
   EC= .07951084962247273  QR= 2.524947244448029   TP= 2456177.2065084046
   OM= 169.0474459105156   W=  108.6903455372236   IN= 4.658272902642655
   A= 2.743049435631537    MA= 163.2078059894258   ADIST= 2.961151626815045
   PER= 4.54317            N= .216946987           ANGMOM= .028400181
   DAN= 2.79697            DDN= 2.65798            L= 277.7954127
   B= 4.4121152            MOID= 1.51252997        TP= 2012-Sep-06.7065084046
 
Asteroid physical parameters (km, seconds, rotational period in hours):
   GM= n.a.                RAD= 24.209             ROTPER= 3.968
   H= 9.                   G= .330                 B-V= .705
                           ALBEDO= .182            STYP= X

ASTEROID comments: 
1: soln ref.= JPL#101, OCC=0
2: source=ORB
*******************************************************************************


*******************************************************************************
Ephemeris / API_USER Mon Sep  4 11:04:32 2023 Pasadena, USA      / Horizons
*******************************************************************************
Target body name: 125 Liberatrix (A872 RA)        {source: JPL#101}
Center body name: Solar System Barycenter (0)     {source: DE441}
Center-site name: BODY CENTER
*******************************************************************************
Start time      : A.D. 2023-Aug-12 00:00:00.0000 TDB
Stop  time      : A.D. 2023-Aug-13 00:00:00.0000 TDB
Step-size       : 2880 minutes
*******************************************************************************
Center geodetic : 0.0, 0.0, 0.0                   {E-lon(deg),Lat(deg),Alt(km)}
Center cylindric: 0.0, 0.0, 0.0                   {E-lon(deg),Dxy(km),Dz(km)}
Center radii    : (undefined)
Small perturbers: Yes                             {source: SB441-N16}
Output units    : KM-S
Calendar mode   : Mixed Julian/Gregorian
Output type     : GEOMETRIC cartesian states
Output format   : 2 (position and velocity)
Reference frame : Ecliptic of J2000.0
*******************************************************************************
Initial IAU76/J2000 heliocentric ecliptic osculating elements (au, days, deg.):
  EPOCH=  2456929.5 ! 2014-Sep-29.00 (TDB)         Residual RMS= .3037         
   EC= .07951084962247273  QR= 2.524947244448029   TP= 2456177.2065084046      
   OM= 169.0474459105156   W=  108.6903455372236   IN= 4.658272902642655       
  Equivalent ICRF heliocentric cartesian coordinates (au, au/d):
   X= 3.402522078375572E-01  Y= 2.777589006217843E+00  Z= 9.435646100338294E-01
  VX=-9.527996222842526E-03 VY= 1.194618173058272E-03 VZ= 5.635882904183346E-04
Asteroid physical parameters (km, seconds, rotational period in hours):        
   GM= n.a.                RAD= 24.209             ROTPER= 3.968               
   H= 9.                   G= .330                 B-V= .705                   
                           ALBEDO= .182            STYP= X                     
*******************************************************************************
JDTDB
   X     Y     Z
   VX    VY    VZ
*******************************************************************************
$$SOE
2460168.500000000 = A.D. 2023-Aug-12 00:00:00.0000 TDB 
 X = 1.628955068294413E+08 Y = 4.042633480924454E+08 Z =-3.493403937849647E+07
 VX=-1.528141377842527E+01 VY= 6.973443009775099E+00 VZ=-3.206365598876282E-01
$$EOE
*******************************************************************************
 
TIME

  Barycentric Dynamical Time ("TDB" or T_eph) output was requested. This
continuous coordinate time is equivalent to the relativistic proper time
of a clock at rest in a reference frame co-moving with the solar system
barycenter but outside the system's gravity well. It is the independent
variable in the solar system relativistic equations of motion.

  TDB runs at a uniform rate of one SI second per second and is independent
of irregularities in Earth's rotation.
 
CALENDAR SYSTEM

  Mixed calendar mode was active such that calendar dates after AD 1582-Oct-15
(if any) are in the modern Gregorian system. Dates prior to 1582-Oct-5 (if any)
are in the Julian calendar system, which is automatically extended for dates
prior to its adoption on 45-Jan-1 BC.  The Julian calendar is useful for
matching historical dates. The Gregorian calendar more accurately corresponds
to the Earth's orbital motion and seasons. A "Gregorian-only" calendar mode is
available if such physical events are the primary interest.

REFERENCE FRAME AND COORDINATES

  Ecliptic at the standard reference epoch

    Reference epoch: J2000.0
    X-Y plane: adopted Earth orbital plane at the reference epoch
               Note: IAU76 obliquity of 84381.448 arcseconds wrt ICRF X-Y plane
    X-axis   : ICRF
    Z-axis   : perpendicular to the X-Y plane in the directional (+ or -) sense
               of Earth's north pole at the reference epoch.

  Symbol meaning:

    JDTDB    Julian Day Number, Barycentric Dynamical Time
      X      X-component of position vector (km)
      Y      Y-component of position vector (km)
      Z      Z-component of position vector (km)
      VX     X-component of velocity vector (km/sec)                           
      VY     Y-component of velocity vector (km/sec)                           
      VZ     Z-component of velocity vector (km/sec)                           

ABERRATIONS AND CORRECTIONS

 Geometric state vectors have NO corrections or aberrations applied.

Computations by ...

    Solar System Dynamics Group, Horizons On-Line Ephemeris System
    4800 Oak Grove Drive, Jet Propulsion Laboratory
    Pasadena, CA  91109   USA

    General site: https://ssd.jpl.nasa.gov/
    Mailing list: https://ssd.jpl.nasa.gov/email_list.html
    System news : https://ssd.jpl.nasa.gov/horizons/news.html
    User Guide  : https://ssd.jpl.nasa.gov/horizons/manual.html
    Connect     : browser        https://ssd.jpl.nasa.gov/horizons/app.html#/x
                  API            https://ssd-api.jpl.nasa.gov/doc/horizons.html
                  command-line   telnet ssd.jpl.nasa.gov 6775
                  e-mail/batch   https://ssd.jpl.nasa.gov/ftp/ssd/hrzn_batch.txt
                  scripts        https://ssd.jpl.nasa.gov/ftp/ssd/SCRIPTS
    Author      : Jon.D.Giorgini@jpl.nasa.gov
*******************************************************************************
